*******************************************************************************
JPL/HORIZONS                495 Eulalia (A902 UL)          2023-Sep-04 11:06:40
Rec #:     495 (+COV) Soln.date: 2023-Aug-23_22:29:06   # obs: 6955 (1902-2023)
 
IAU76/J2000 helio. ecliptic osc. elements (au, days, deg., period=Julian yrs):
 
  EPOCH=  2457220.5 ! 2015-Jul-17.00 (TDB)         Residual RMS= .28239
   EC= .1299041631713894   QR= 2.164231503651372   TP= 2457578.7010120405
   OM= 186.4827911001996   W=  207.0187149932235   IN= 2.27915432356361
   A= 2.487348418468157    MA= 270.0034322906255   ADIST= 2.810465333284942
   PER= 3.92295            N= .251245989           ANGMOM= .026900113
   DAN= 2.7654             DDN= 2.19173            L= 33.4831601
   B= -1.035161            MOID= 1.16908002        TP= 2016-Jul-09.2010120405
 
Asteroid physical parameters (km, seconds, rotational period in hours):
   GM= n.a.                RAD= 18.6435            ROTPER= 28.967
   H= 11.2                 G= .150                 B-V= .690
                           ALBEDO= .062            STYP= n.a.

ASTEROID comments: 
1: soln ref.= JPL#93, OCC=0
2: source=ORB
*******************************************************************************


*******************************************************************************
Ephemeris / API_USER Mon Sep  4 11:06:40 2023 Pasadena, USA      / Horizons
*******************************************************************************
Target body name: 495 Eulalia (A902 UL)           {source: JPL#93}
Center body name: Solar System Barycenter (0)     {source: DE441}
Center-site name: BODY CENTER
*******************************************************************************
Start time      : A.D. 2023-Aug-12 00:00:00.0000 TDB
Stop  time      : A.D. 2023-Aug-13 00:00:00.0000 TDB
Step-size       : 2880 minutes
*******************************************************************************
Center geodetic : 0.0, 0.0, 0.0                   {E-lon(deg),Lat(deg),Alt(km)}
Center cylindric: 0.0, 0.0, 0.0                   {E-lon(deg),Dxy(km),Dz(km)}
Center radii    : (undefined)
Small perturbers: Yes                             {source: SB441-N16}
Output units    : KM-S
Calendar mode   : Mixed Julian/Gregorian
Output type     : GEOMETRIC cartesian states
Output format   : 2 (position and velocity)
Reference frame : Ecliptic of J2000.0
*******************************************************************************
Initial IAU76/J2000 heliocentric ecliptic osculating elements (au, days, deg.):
  EPOCH=  2457220.5 ! 2015-Jul-17.00 (TDB)         Residual RMS= .28239        
   EC= .1299041631713894   QR= 2.164231503651372   TP= 2457578.7010120405      
   OM= 186.4827911001996   W=  207.0187149932235   IN= 2.27915432356361        
  Equivalent ICRF heliocentric cartesian coordinates (au, au/d):
   X= 8.140063674916671E-01  Y=-2.233915431638801E+00  Z=-8.614242429834078E-01
  VX= 9.626185066027396E-03 VY= 4.397475674145741E-03 VZ= 1.749786192359940E-03
Asteroid physical parameters (km, seconds, rotational period in hours):        
   GM= n.a.                RAD= 18.6435            ROTPER= 28.967              
   H= 11.2                 G= .150                 B-V= .690                   
                           ALBEDO= .062            STYP= n.a.                  
*******************************************************************************
JDTDB
   X     Y     Z
   VX    VY    VZ
*******************************************************************************
$$SOE
2460168.500000000 = A.D. 2023-Aug-12 00:00:00.0000 TDB 
 X = 2.281202230200031E+08 Y =-2.796502927354686E+08 Z = 1.210010526176152E+07
 VX= 1.334174511112588E+01 VY= 1.409211338499339E+01 VZ=-4.987969112092658E-01
$$EOE
*******************************************************************************
 
TIME

  Barycentric Dynamical Time ("TDB" or T_eph) output was requested. This
continuous coordinate time is equivalent to the relativistic proper time
of a clock at rest in a reference frame co-moving with the solar system
barycenter but outside the system's gravity well. It is the independent
variable in the solar system relativistic equations of motion.

  TDB runs at a uniform rate of one SI second per second and is independent
of irregularities in Earth's rotation.
 
CALENDAR SYSTEM

  Mixed calendar mode was active such that calendar dates after AD 1582-Oct-15
(if any) are in the modern Gregorian system. Dates prior to 1582-Oct-5 (if any)
are in the Julian calendar system, which is automatically extended for dates
prior to its adoption on 45-Jan-1 BC.  The Julian calendar is useful for
matching historical dates. The Gregorian calendar more accurately corresponds
to the Earth's orbital motion and seasons. A "Gregorian-only" calendar mode is
available if such physical events are the primary interest.

REFERENCE FRAME AND COORDINATES

  Ecliptic at the standard reference epoch

    Reference epoch: J2000.0
    X-Y plane: adopted Earth orbital plane at the reference epoch
               Note: IAU76 obliquity of 84381.448 arcseconds wrt ICRF X-Y plane
    X-axis   : ICRF
    Z-axis   : perpendicular to the X-Y plane in the directional (+ or -) sense
               of Earth's north pole at the reference epoch.

  Symbol meaning:

    JDTDB    Julian Day Number, Barycentric Dynamical Time
      X      X-component of position vector (km)
      Y      Y-component of position vector (km)
      Z      Z-component of position vector (km)
      VX     X-component of velocity vector (km/sec)                           
      VY     Y-component of velocity vector (km/sec)                           
      VZ     Z-component of velocity vector (km/sec)                           

ABERRATIONS AND CORRECTIONS

 Geometric state vectors have NO corrections or aberrations applied.

Computations by ...

    Solar System Dynamics Group, Horizons On-Line Ephemeris System
    4800 Oak Grove Drive, Jet Propulsion Laboratory
    Pasadena, CA  91109   USA

    General site: https://ssd.jpl.nasa.gov/
    Mailing list: https://ssd.jpl.nasa.gov/email_list.html
    System news : https://ssd.jpl.nasa.gov/horizons/news.html
    User Guide  : https://ssd.jpl.nasa.gov/horizons/manual.html
    Connect     : browser        https://ssd.jpl.nasa.gov/horizons/app.html#/x
                  API            https://ssd-api.jpl.nasa.gov/doc/horizons.html
                  command-line   telnet ssd.jpl.nasa.gov 6775
                  e-mail/batch   https://ssd.jpl.nasa.gov/ftp/ssd/hrzn_batch.txt
                  scripts        https://ssd.jpl.nasa.gov/ftp/ssd/SCRIPTS
    Author      : Jon.D.Giorgini@jpl.nasa.gov
*******************************************************************************
